[{"OBJECT_NAME":"UMBRA-07","OBJECT_ID":"2023-174AT","EPOCH":"2026-03-09T17:14:20.565312","MEAN_MOTION":15.07174057,"ECCENTRICITY":0.00041314,"INCLINATION":97.3902,"RA_OF_ASC_NODE":128.3323,"ARG_OF_PERICENTER":75.5473,"MEAN_ANOMALY":284.6213,"EPHEMERIS_TYPE":0,"CLASSIFICATION_TYPE":"U","NORAD_CAT_ID":58297,"ELEMENT_SET_NO":999,"REV_AT_EPOCH":12842,"BSTAR":0.0008461425,"MEAN_MOTION_DOT":0.00012685,"MEAN_MOTION_DDOT":0},{"OBJECT_NAME":"FENGYUN 1C DEB","OBJECT_ID":"1999-025CUF","EPOCH":"2026-03-09T01:34:38.628768","MEAN_MOTION":15.17132493,"ECCENTRICITY":0.01273829,"INCLINATION":98.8955,"RA_OF_ASC_NODE":293.2327,"ARG_OF_PERICENTER":89.1897,"MEAN_ANOMALY":272.3925,"EPHEMERIS_TYPE":0,"CLASSIFICATION_TYPE":"U","NORAD_CAT_ID":32185,"ELEMENT_SET_NO":999,"REV_AT_EPOCH":96318,"BSTAR":0.0036969643,"MEAN_MOTION_DOT":0.00091378,"MEAN_MOTION_DDOT":0}]
